{
  "type": "FeatureCollection",
  "features": [
    {
      "type": "Feature",
      "properties": {
        "norad_id": 19071,
        "name": "OSCAR 32",
        "group": "nnss",
        "lat": 87.61955646602189,
        "lon": -155.74582913564092,
        "alt_km": 1115.0125753945285,
        "timestamp": "2025-12-11T10:53:16.155158+00:00",
        "meta_object_name": "OSCAR 32",
        "meta_object_id": "1988-033B",
        "meta_epoch": "2025-12-11T03:29:45.932064",
        "meta_mean_motion": 13.27953674,
        "meta_eccentricity": 0.018823,
        "meta_inclination": 90.3218,
        "meta_ra_of_asc_node": 16.4751,
        "meta_arg_of_pericenter": 171.2182,
        "meta_mean_anomaly": 251.7159,
        "meta_ephemeris_type": 0,
        "meta_classification_type": "U",
        "meta_norad_cat_id": 19071,
        "meta_element_set_no": 999,
        "meta_rev_at_epoch": 82244,
        "meta_bstar": 0.00013892,
        "meta_mean_motion_dot": 7.8e-07,
        "meta_mean_motion_ddot": 0,
        "tle_line1": "1 19071U 88033B   25345.14567051  .00000078  00000+0  13892-3 0  9998",
        "tle_line2": "2 19071  90.3218  16.4751 0188230 171.2182 251.7159 13.27953674822448"
      },
      "geometry": {
        "type": "Point",
        "coordinates": [
          -155.74582913564092,
          87.61955646602189
        ]
      }
    },
    {
      "type": "Feature",
      "properties": {
        "norad_id": 19223,
        "name": "NOVA 2",
        "group": "nnss",
        "lat": -45.5195995722108,
        "lon": 78.26107894322651,
        "alt_km": 1170.724473100011,
        "timestamp": "2025-12-11T10:53:16.155169+00:00",
        "meta_object_name": "NOVA 2",
        "meta_object_id": "1988-052A",
        "meta_epoch": "2025-12-10T17:44:33.779904",
        "meta_mean_motion": 13.22935704,
        "meta_eccentricity": 0.0030761,
        "meta_inclination": 89.9872,
        "meta_ra_of_asc_node": 78.275,
        "meta_arg_of_pericenter": 22.3603,
        "meta_mean_anomaly": 132.2155,
        "meta_ephemeris_type": 0,
        "meta_classification_type": "U",
        "meta_norad_cat_id": 19223,
        "meta_element_set_no": 999,
        "meta_rev_at_epoch": 80921,
        "meta_bstar": 0.00020145251,
        "meta_mean_motion_dot": 9.4e-07,
        "meta_mean_motion_ddot": 0,
        "tle_line1": "1 19223U 88052A   25344.73927986  .00000094  00000+0  20145-3 0  9996",
        "tle_line2": "2 19223  89.9872  78.2750 0030761  22.3603 132.2155 13.22935704809219"
      },
      "geometry": {
        "type": "Point",
        "coordinates": [
          78.26107894322651,
          -45.5195995722108
        ]
      }
    },
    {
      "type": "Feature",
      "properties": {
        "norad_id": 19419,
        "name": "OSCAR 25",
        "group": "nnss",
        "lat": -59.16947303345217,
        "lon": 20.298551366644467,
        "alt_km": 1062.189161744057,
        "timestamp": "2025-12-11T10:53:16.155179+00:00",
        "meta_object_name": "OSCAR 25",
        "meta_object_id": "1988-074A",
        "meta_epoch": "2025-12-11T04:22:38.382816",
        "meta_mean_motion": 13.42622894,
        "meta_eccentricity": 0.0094386,
        "meta_inclination": 90.0349,
        "meta_ra_of_asc_node": 20.2391,
        "meta_arg_of_pericenter": 250.3644,
        "meta_mean_anomaly": 179.2935,
        "meta_ephemeris_type": 0,
        "meta_classification_type": "U",
        "meta_norad_cat_id": 19419,
        "meta_element_set_no": 999,
        "meta_rev_at_epoch": 82619,
        "meta_bstar": 0.00021415,
        "meta_mean_motion_dot": 1.33e-06,
        "meta_mean_motion_ddot": 0,
        "tle_line1": "1 19419U 88074A   25345.18238869  .00000133  00000+0  21415-3 0  9997",
        "tle_line2": "2 19419  90.0349  20.2391 0094386 250.3644 179.2935 13.42622894826195"
      },
      "geometry": {
        "type": "Point",
        "coordinates": [
          20.298551366644467,
          -59.16947303345217
        ]
      }
    },
    {
      "type": "Feature",
      "properties": {
        "norad_id": 19420,
        "name": "OSCAR 31",
        "group": "nnss",
        "lat": -3.19756882179612,
        "lon": -159.41215970570758,
        "alt_km": 1068.5189681607708,
        "timestamp": "2025-12-11T10:53:16.155211+00:00",
        "meta_object_name": "OSCAR 31",
        "meta_object_id": "1988-074B",
        "meta_epoch": "2025-12-11T03:05:17.232288",
        "meta_mean_motion": 13.42584246,
        "meta_eccentricity": 0.0092665,
        "meta_inclination": 90.0365,
        "meta_ra_of_asc_node": 20.5887,
        "meta_arg_of_pericenter": 244.6168,
        "meta_mean_anomaly": 169.5516,
        "meta_ephemeris_type": 0,
        "meta_classification_type": "U",
        "meta_norad_cat_id": 19420,
        "meta_element_set_no": 999,
        "meta_rev_at_epoch": 82629,
        "meta_bstar": 0.00017539,
        "meta_mean_motion_dot": 1.1e-06,
        "meta_mean_motion_ddot": 0,
        "tle_line1": "1 19420U 88074B   25345.12867167  .00000110  00000+0  17539-3 0  9999",
        "tle_line2": "2 19420  90.0365  20.5887 0092665 244.6168 169.5516 13.42584246826299"
      },
      "geometry": {
        "type": "Point",
        "coordinates": [
          -159.41215970570758,
          -3.19756882179612
        ]
      }
    }
  ]
}